start=new Date('2021-09-01T00:00:00.000Z').valueOf();
sats=[{"OBJECT_NAME":"STARLINK-2294","OBJECT_TYPE":"PAYLOAD","DECAY_DATE":null,"LAUNCH_DATE":"2021-03-24","ELEMENT_SET_NO":"999","TLE_LINE1":"1 48020U 21024AV  21243.83109573  .00036303  00000-0  26110-3 0  9999","EPOCH":"2021-08-31T19:56:46.671072","PERIAPSIS":"346.861","TLE_LINE2":"2 48020  53.0452 126.9253 0004027  14.2829 345.8302 15.73266507 26524","MEAN_MOTION_DOT":"0.00036303","MEAN_ANOMALY":"345.8302","COUNTRY_CODE":"US","FILE":"3106454","EPHEMERIS_TYPE":"0","RA_OF_ASC_NODE":"126.9253","GP_ID":"183843062","APOAPSIS":"352.280","ECCENTRICITY":"0.00040270","MEAN_ELEMENT_THEORY":"SGP4","ARG_OF_PERICENTER":"14.2829","REF_FRAME":"TEME","INCLINATION":"53.0452","SITE":"AFETR","REV_AT_EPOCH":"2652","NORAD_CAT_ID":"48020","RCS_SIZE":"LARGE","PERIOD":"91.529","TIME_SYSTEM":"UTC","MEAN_MOTION_DDOT":"0.0000000000000","SEMIMAJOR_AXIS":"6727.706","MEAN_MOTION":"15.73266507","BSTAR":"0.00026110000000","CLASSIFICATION_TYPE":"U","CENTER_NAME":"EARTH","OBJECT_ID":"2021-024AV"},{"GP_ID":"183841311","APOAPSIS":"377.085","ECCENTRICITY":"0.00002750","MEAN_ELEMENT_THEORY":"SGP4","ARG_OF_PERICENTER":"132.9702","REF_FRAME":"TEME","INCLINATION":"53.0454","MEAN_ANOMALY":"227.1335","MEAN_MOTION_DOT":"-0.00464347","FILE":"3106454","COUNTRY_CODE":"US","EPHEMERIS_TYPE":"0","RA_OF_ASC_NODE":"127.0525","LAUNCH_DATE":"2021-03-24","ELEMENT_SET_NO":"999","TLE_LINE1":"1 48021U 21024AW  21243.84635024 -.00464347  00000-0 -51595-2 0  9995","EPOCH":"2021-08-31T20:18:44.660736","PERIAPSIS":"376.714","TLE_LINE2":"2 48021  53.0454 127.0525 0000275 132.9702 227.1335 15.63728718 26535","OBJECT_NAME":"STARLINK-2301","OBJECT_TYPE":"PAYLOAD","DECAY_DATE":null,"CENTER_NAME":"EARTH","OBJECT_ID":"2021-024AW","CLASSIFICATION_TYPE":"U","TIME_SYSTEM":"UTC","MEAN_MOTION_DDOT":"0.0000000000000","SEMIMAJOR_AXIS":"6755.034","MEAN_MOTION":"15.63728718","BSTAR":"-0.00515950000000","SITE":"AFETR","REV_AT_EPOCH":"2653","NORAD_CAT_ID":"48021","RCS_SIZE":"LARGE","PERIOD":"92.088"},{"TLE_LINE2":"2 48022  53.0563 183.9543 0001583  59.3468 300.7676 15.06399801 25766","PERIAPSIS":"546.118","EPOCH":"2021-08-31T12:45:42.325632","TLE_LINE1":"1 48022U 21024AX  21243.53173988 -.00000388  00000-0 -71436-5 0  9998","ELEMENT_SET_NO":"999","LAUNCH_DATE":"2021-03-24","DECAY_DATE":null,"OBJECT_TYPE":"PAYLOAD","OBJECT_NAME":"STARLINK-2298","INCLINATION":"53.0563","REF_FRAME":"TEME","ARG_OF_PERICENTER":"59.3468","MEAN_ELEMENT_THEORY":"SGP4","ECCENTRICITY":"0.00015830","APOAPSIS":"548.310","GP_ID":"183815990","RA_OF_ASC_NODE":"183.9543","EPHEMERIS_TYPE":"0","COUNTRY_CODE":"US","FILE":"3106313","MEAN_MOTION_DOT":"-0.00000388","MEAN_ANOMALY":"300.7676","BSTAR":"-0.00000714360000","MEAN_MOTION":"15.06399801","SEMIMAJOR_AXIS":"6925.349","MEAN_MOTION_DDOT":"0.0000000000000","TIME_SYSTEM":"UTC","PERIOD":"95.592","RCS_SIZE":"LARGE","NORAD_CAT_ID":"48022","REV_AT_EPOCH":"2576","SITE":"AFETR","OBJECT_ID":"2021-024AX","CENTER_NAME":"EARTH","CLASSIFICATION_TYPE":"U"},{"OBJECT_ID":"2021-024AY","CENTER_NAME":"EARTH","CLASSIFICATION_TYPE":"U","BSTAR":"-0.00009973900000","MEAN_MOTION_DDOT":"0.0000000000000","TIME_SYSTEM":"UTC","MEAN_MOTION":"15.06392205","SEMIMAJOR_AXIS":"6925.372","NORAD_CAT_ID":"48023","RCS_SIZE":"LARGE","PERIOD":"95.593","SITE":"AFETR","REV_AT_EPOCH":"2576","MEAN_ELEMENT_THEORY":"SGP4","ARG_OF_PERICENTER":"62.8989","INCLINATION":"53.0549","REF_FRAME":"TEME","GP_ID":"183842313","ECCENTRICITY":"0.00013980","APOAPSIS":"548.206","EPHEMERIS_TYPE":"0","RA_OF_ASC_NODE":"183.8719","MEAN_MOTION_DOT":"-0.00001766","MEAN_ANOMALY":"297.2143","COUNTRY_CODE":"US","FILE":"3106454","TLE_LINE2":"2 48023  53.0549 183.8719 0001398  62.8989 297.2143 15.06392205 25766","TLE_LINE1":"1 48023U 21024AY  21243.54744369 -.00001766  00000-0 -99739-4 0  9993","LAUNCH_DATE":"2021-03-24","ELEMENT_SET_NO":"999","PERIAPSIS":"546.269","EPOCH":"2021-08-31T13:08:19.134816","DECAY_DATE":null,"OBJECT_TYPE":"PAYLOAD","OBJECT_NAME":"STARLINK-2292"},{"ARG_OF_PERICENTER":"8.4003","MEAN_ELEMENT_THEORY":"SGP4","INCLINATION":"53.0454","REF_FRAME":"TEME","GP_ID":"183842563","ECCENTRICITY":"0.00039780","APOAPSIS":"352.320","EPHEMERIS_TYPE":"0","RA_OF_ASC_NODE":"126.6085","MEAN_MOTION_DOT":"0.00012685","MEAN_ANOMALY":"351.7081","FILE":"3106454","COUNTRY_CODE":"US","TLE_LINE2":"2 48024  53.0454 126.6085 0003978   8.4003 351.7081 15.73240793 26544","TLE_LINE1":"1 48024U 21024AZ  21243.89412716  .00012685  00000-0  94481-4 0  9999","LAUNCH_DATE":"2021-03-24","ELEMENT_SET_NO":"999","PERIAPSIS":"346.968","EPOCH":"2021-08-31T21:27:32.586624","DECAY_DATE":null,"OBJECT_TYPE":"PAYLOAD","OBJECT_NAME":"STARLINK-2302","OBJECT_ID":"2021-024AZ","CENTER_NAME":"EARTH","CLASSIFICATION_TYPE":"U","BSTAR":"0.00009448100000","MEAN_MOTION_DDOT":"0.0000000000000","TIME_SYSTEM":"UTC","MEAN_MOTION":"15.73240793","SEMIMAJOR_AXIS":"6727.779","NORAD_CAT_ID":"48024","RCS_SIZE":"LARGE","PERIOD":"91.531","SITE":"AFETR","REV_AT_EPOCH":"2654"},{"BSTAR":"0.00005868300000","MEAN_MOTION":"15.73228581","SEMIMAJOR_AXIS":"6727.814","MEAN_MOTION_DDOT":"0.0000000000000","TIME_SYSTEM":"UTC","PERIOD":"91.532","RCS_SIZE":"LARGE","NORAD_CAT_ID":"48025","REV_AT_EPOCH":"2653","SITE":"AFETR","OBJECT_ID":"2021-024BA","CENTER_NAME":"EARTH","CLASSIFICATION_TYPE":"U","TLE_LINE2":"2 48025  53.0453 126.6055 0004866   9.1483 350.9623 15.73228581 26531","PERIAPSIS":"346.405","EPOCH":"2021-08-31T21:27:25.328160","TLE_LINE1":"1 48025U 21024BA  21243.89404315  .00007633  00000-0  58683-4 0  9997","ELEMENT_SET_NO":"999","LAUNCH_DATE":"2021-03-24","DECAY_DATE":null,"OBJECT_TYPE":"PAYLOAD","OBJECT_NAME":"STARLINK-2318","INCLINATION":"53.0453","REF_FRAME":"TEME","ARG_OF_PERICENTER":"9.1483","MEAN_ELEMENT_THEORY":"SGP4","ECCENTRICITY":"0.00048660","APOAPSIS":"352.952","GP_ID":"183841811","RA_OF_ASC_NODE":"126.6055","EPHEMERIS_TYPE":"0","FILE":"3106454","COUNTRY_CODE":"US","MEAN_MOTION_DOT":"0.00007633","MEAN_ANOMALY":"350.9623"},{"TLE_LINE2":"2 48026  53.0524 188.7913 0001787  60.6842 299.4325 15.04769246 25642","TLE_LINE1":"1 48026U 21024BB  21243.56662113 -.00000474  00000-0 -13783-4 0  9994","LAUNCH_DATE":"2021-03-24","ELEMENT_SET_NO":"999","PERIAPSIS":"550.978","EPOCH":"2021-08-31T13:35:56.065632","DECAY_DATE":null,"OBJECT_TYPE":"PAYLOAD","OBJECT_NAME":"STARLINK-2278","ARG_OF_PERICENTER":"60.6842","MEAN_ELEMENT_THEORY":"SGP4","INCLINATION":"53.0524","REF_FRAME":"TEME","GP_ID":"183842061","ECCENTRICITY":"0.00017870","APOAPSIS":"553.455","EPHEMERIS_TYPE":"0","RA_OF_ASC_NODE":"188.7913","MEAN_ANOMALY":"299.4325","MEAN_MOTION_DOT":"-0.00000474","COUNTRY_CODE":"US","FILE":"3106454","BSTAR":"-0.00001378300000","MEAN_MOTION_DDOT":"0.0000000000000","TIME_SYSTEM":"UTC","MEAN_MOTION":"15.04769246","SEMIMAJOR_AXIS":"6930.351","NORAD_CAT_ID":"48026","RCS_SIZE":"LARGE","PERIOD":"95.696","REV_AT_EPOCH":"2564","SITE":"AFETR","OBJECT_ID":"2021-024BB","CENTER_NAME":"EARTH","CLASSIFICATION_TYPE":"U"},{"MEAN_MOTION_DOT":"-0.00001617","MEAN_ANOMALY":"313.4612","COUNTRY_CODE":"US","FILE":"3106313","EPHEMERIS_TYPE":"0","RA_OF_ASC_NODE":"164.1516","GP_ID":"183816727","APOAPSIS":"547.890","ECCENTRICITY":"0.00009570","MEAN_ELEMENT_THEORY":"SGP4","ARG_OF_PERICENTER":"46.6457","REF_FRAME":"TEME","INCLINATION":"53.0564","OBJECT_NAME":"STARLINK-2300","OBJECT_TYPE":"PAYLOAD","DECAY_DATE":null,"LAUNCH_DATE":"2021-03-24","ELEMENT_SET_NO":"999","TLE_LINE1":"1 48027U 21024BC  21243.48662353 -.00001617  00000-0 -89739-4 0  9996","EPOCH":"2021-08-31T11:40:44.272992","PERIAPSIS":"546.565","TLE_LINE2":"2 48027  53.0564 164.1516 0000957  46.6457 313.4612 15.06395387 25973","CLASSIFICATION_TYPE":"U","CENTER_NAME":"EARTH","OBJECT_ID":"2021-024BC","SITE":"AFETR","REV_AT_EPOCH":"2597","NORAD_CAT_ID":"48027","PERIOD":"95.592","RCS_SIZE":"LARGE","TIME_SYSTEM":"UTC","MEAN_MOTION_DDOT":"0.0000000000000","SEMIMAJOR_AXIS":"6925.363","MEAN_MOTION":"15.06395387","BSTAR":"-0.00008973900000"},{"GP_ID":"183843063","ECCENTRICITY":"0.00039620","APOAPSIS":"352.334","ARG_OF_PERICENTER":"11.1937","MEAN_ELEMENT_THEORY":"SGP4","INCLINATION":"53.0458","REF_FRAME":"TEME","MEAN_ANOMALY":"348.9169","MEAN_MOTION_DOT":"0.00024915","COUNTRY_CODE":"US","FILE":"3106454","EPHEMERIS_TYPE":"0","RA_OF_ASC_NODE":"126.6008","TLE_LINE1":"1 48028U 21024BD  21243.89370807  .00024915  00000-0  18109-3 0  9998","ELEMENT_SET_NO":"999","LAUNCH_DATE":"2021-03-24","PERIAPSIS":"347.003","EPOCH":"2021-08-31T21:26:56.377248","TLE_LINE2":"2 48028  53.0458 126.6008 0003962  11.1937 348.9169 15.73232291 26591","OBJECT_NAME":"STARLINK-2264","DECAY_DATE":null,"OBJECT_TYPE":"PAYLOAD","OBJECT_ID":"2021-024BD","CENTER_NAME":"EARTH","CLASSIFICATION_TYPE":"U","MEAN_MOTION_DDOT":"0.0000000000000","TIME_SYSTEM":"UTC","MEAN_MOTION":"15.73232291","SEMIMAJOR_AXIS":"6727.803","BSTAR":"0.00018109000000","REV_AT_EPOCH":"2659","SITE":"AFETR","NORAD_CAT_ID":"48028","PERIOD":"91.531","RCS_SIZE":"LARGE"},{"TIME_SYSTEM":"UTC","MEAN_MOTION_DDOT":"0.0000000000000","SEMIMAJOR_AXIS":"6925.373","MEAN_MOTION":"15.06392085","BSTAR":"0.00010574000000","SITE":"AFETR","REV_AT_EPOCH":"2582","NORAD_CAT_ID":"48029","PERIOD":"95.593","RCS_SIZE":"LARGE","CENTER_NAME":"EARTH","OBJECT_ID":"2021-024BE","CLASSIFICATION_TYPE":"U","ELEMENT_SET_NO":"999","LAUNCH_DATE":"2021-03-24","TLE_LINE1":"1 48029U 21024BE  21243.92340672  .00001293  00000-0  10574-3 0  9992","EPOCH":"2021-08-31T22:09:42.340608","PERIAPSIS":"546.006","TLE_LINE2":"2 48029  53.0549 182.1941 0001779  56.8611 303.2548 15.06392085 25829","OBJECT_NAME":"STARLINK-2299","OBJECT_TYPE":"PAYLOAD","DECAY_DATE":null,"GP_ID":"183841312","APOAPSIS":"548.470","ECCENTRICITY":"0.00017790","ARG_OF_PERICENTER":"56.8611","MEAN_ELEMENT_THEORY":"SGP4","REF_FRAME":"TEME","INCLINATION":"53.0549","MEAN_MOTION_DOT":"0.00001293","MEAN_ANOMALY":"303.2548","COUNTRY_CODE":"US","FILE":"3106454","EPHEMERIS_TYPE":"0","RA_OF_ASC_NODE":"182.1941"}];
